GLOBALSTAR M045         
1 25676U 99019A   25291.00935166 -.00000068  00000+0  22342-3 0  9993
2 25676  51.9975 315.1998 0000464  95.9570 273.8844 12.27066369208478
GLOBALSTAR M019         
1 25677U 99019B   25290.97711757 -.00000041  00000+0  51090-3 0  9990
2 25677  51.9855  94.2940 0001238 165.0084 346.2584 12.13876057200057
GLOBALSTAR M044         
1 25678U 99019C   25291.14995566 -.00000104  00000+0 -28887-3 0  9992
2 25678  51.9978  60.5561 0005408 274.9271 256.6654 11.90260695185963
GLOBALSTAR M042         
1 25679U 99019D   25291.09912624 -.00000075  00000+0  16354-3 0  9993
2 25679  52.0018  63.9652 0003221 177.1445 353.9639 12.22089548200286
GLOBALSTAR M025         
1 25770U 99031A   25291.08640632 -.00000084  00000+0 -49648-3 0  9998
2 25770  51.9803 234.5658 0002579   0.2733  12.2727 11.22557693495516
GLOBALSTAR M049         
1 25771U 99031B   25291.12712169  .00000000  00000+0  22476-2 0  9994
2 25771  51.9866 275.4145 0002574 227.5700 132.4878 11.12120230131100
GLOBALSTAR M047         
1 25772U 99031C   25291.16179644 -.00000064  00000+0  16118-3 0  9992
2 25772  51.9817 260.5554 0016462 112.4198 247.8353 11.31930425485039
GLOBALSTAR M052         
1 25773U 99031D   25291.20739514 -.00000110  00000+0 -14800-2 0  9994
2 25773  51.9906  22.1730 0002469  29.3196 342.4980 11.15061108492236
